CCSDS_OMM_VERS = 2.0
CREATION_DATE  = 
ORIGINATOR     = 

OBJECT_NAME    = STARLINK-35916
OBJECT_ID      = 2025-263V
CENTER_NAME    = EARTH
REF_FRAME      = TEME
TIME_SYSTEM    = UTC
MEAN_ELEMENT_THEORY = SGP/SGP4

EPOCH          = 2025-12-14T10:01:00.331680
MEAN_MOTION    = 15.40690154
ECCENTRICITY   = .00009839
INCLINATION    = 42.9953
RA_OF_ASC_NODE = 116.9698
ARG_OF_PERICENTER = 265.9506
MEAN_ANOMALY   = 94.1238

EPHEMERIS_TYPE = 0
CLASSIFICATION_TYPE = U
NORAD_CAT_ID   = 66504
ELEMENT_SET_NO = 999
REV_AT_EPOCH   = 580
BSTAR          = .1204367E-2
MEAN_MOTION_DOT = .50322E-3
MEAN_MOTION_DDOT = 0

CCSDS_OMM_VERS = 2.0
CREATION_DATE  = 
ORIGINATOR     = 

OBJECT_NAME    = STARLINK-34766
OBJECT_ID      = 2025-263W
CENTER_NAME    = EARTH
REF_FRAME      = TEME
TIME_SYSTEM    = UTC
MEAN_ELEMENT_THEORY = SGP/SGP4

EPOCH          = 2025-12-12T17:56:57.882624
MEAN_MOTION    = 15.50613801
ECCENTRICITY   = .00016181
INCLINATION    = 42.9974
RA_OF_ASC_NODE = 125.0394
ARG_OF_PERICENTER = 278.9286
MEAN_ANOMALY   = 81.1391

EPHEMERIS_TYPE = 0
CLASSIFICATION_TYPE = U
NORAD_CAT_ID   = 66505
ELEMENT_SET_NO = 999
REV_AT_EPOCH   = 556
BSTAR          = .19225717E-2
MEAN_MOTION_DOT = .114249E-2
MEAN_MOTION_DDOT = 0

CCSDS_OMM_VERS = 2.0
CREATION_DATE  = 
ORIGINATOR     = 

OBJECT_NAME    = STARLINK-34765
OBJECT_ID      = 2025-263X
CENTER_NAME    = EARTH
REF_FRAME      = TEME
TIME_SYSTEM    = UTC
MEAN_ELEMENT_THEORY = SGP/SGP4

EPOCH          = 2025-12-13T09:24:02.209536
MEAN_MOTION    = 15.50662448
ECCENTRICITY   = .00019802
INCLINATION    = 43.0016
RA_OF_ASC_NODE = 121.2760
ARG_OF_PERICENTER = 266.2517
MEAN_ANOMALY   = 93.8117

EPHEMERIS_TYPE = 0
CLASSIFICATION_TYPE = U
NORAD_CAT_ID   = 66506
ELEMENT_SET_NO = 999
REV_AT_EPOCH   = 566
BSTAR          = .20838032E-2
MEAN_MOTION_DOT = .124234E-2
MEAN_MOTION_DDOT = 0

CCSDS_OMM_VERS = 2.0
CREATION_DATE  = 
ORIGINATOR     = 

OBJECT_NAME    = STARLINK-34767
OBJECT_ID      = 2025-263Y
CENTER_NAME    = EARTH
REF_FRAME      = TEME
TIME_SYSTEM    = UTC
MEAN_ELEMENT_THEORY = SGP/SGP4

EPOCH          = 2025-12-14T20:00:06.000192
MEAN_MOTION    = 15.40654131
ECCENTRICITY   = .00015613
INCLINATION    = 43.0001
RA_OF_ASC_NODE = 113.0742
ARG_OF_PERICENTER = 288.3869
MEAN_ANOMALY   = 113.5716

EPHEMERIS_TYPE = 0
CLASSIFICATION_TYPE = U
NORAD_CAT_ID   = 66507
ELEMENT_SET_NO = 999
REV_AT_EPOCH   = 597
BSTAR          = .20624324E-2
MEAN_MOTION_DOT = .86702E-3
MEAN_MOTION_DDOT = 0

CCSDS_OMM_VERS = 2.0
CREATION_DATE  = 
ORIGINATOR     = 

OBJECT_NAME    = STARLINK-35608
OBJECT_ID      = 2025-263Z
CENTER_NAME    = EARTH
REF_FRAME      = TEME
TIME_SYSTEM    = UTC
MEAN_ELEMENT_THEORY = SGP/SGP4

EPOCH          = 2025-12-14T20:00:06.000192
MEAN_MOTION    = 15.40651256
ECCENTRICITY   = .00015344
INCLINATION    = 43.0002
RA_OF_ASC_NODE = 112.9533
ARG_OF_PERICENTER = 272.8257
MEAN_ANOMALY   = 178.8951

EPHEMERIS_TYPE = 0
CLASSIFICATION_TYPE = U
NORAD_CAT_ID   = 66508
ELEMENT_SET_NO = 999
REV_AT_EPOCH   = 597
BSTAR          = .21049319E-2
MEAN_MOTION_DOT = .88507E-3
MEAN_MOTION_DDOT = 0

CCSDS_OMM_VERS = 2.0
CREATION_DATE  = 
ORIGINATOR     = 

OBJECT_NAME    = STARLINK-35598
OBJECT_ID      = 2025-263AA
CENTER_NAME    = EARTH
REF_FRAME      = TEME
TIME_SYSTEM    = UTC
MEAN_ELEMENT_THEORY = SGP/SGP4

EPOCH          = 2025-12-14T08:31:08.436000
MEAN_MOTION    = 15.50307356
ECCENTRICITY   = .00024598
INCLINATION    = 42.9963
RA_OF_ASC_NODE = 115.5964
ARG_OF_PERICENTER = 212.5604
MEAN_ANOMALY   = 147.5105

EPHEMERIS_TYPE = 0
CLASSIFICATION_TYPE = U
NORAD_CAT_ID   = 66509
ELEMENT_SET_NO = 999
REV_AT_EPOCH   = 581
BSTAR          = .14213788E-2
MEAN_MOTION_DOT = .8313E-3
MEAN_MOTION_DDOT = 0

CCSDS_OMM_VERS = 2.0
CREATION_DATE  = 
ORIGINATOR     = 

OBJECT_NAME    = STARLINK-35600
OBJECT_ID      = 2025-263AB
CENTER_NAME    = EARTH
REF_FRAME      = TEME
TIME_SYSTEM    = UTC
MEAN_ELEMENT_THEORY = SGP/SGP4

EPOCH          = 2025-12-14T17:49:03.451584
MEAN_MOTION    = 15.50286834
ECCENTRICITY   = .00044017
INCLINATION    = 42.9969
RA_OF_ASC_NODE = 113.3430
ARG_OF_PERICENTER = 251.3288
MEAN_ANOMALY   = 108.7095

EPHEMERIS_TYPE = 0
CLASSIFICATION_TYPE = U
NORAD_CAT_ID   = 66510
ELEMENT_SET_NO = 999
REV_AT_EPOCH   = 587
BSTAR          = -.42621256E-2
MEAN_MOTION_DOT = -.240481E-2
MEAN_MOTION_DDOT = 0

CCSDS_OMM_VERS = 2.0
CREATION_DATE  = 
ORIGINATOR     = 

OBJECT_NAME    = STARLINK-35444
OBJECT_ID      = 2025-263AC
CENTER_NAME    = EARTH
REF_FRAME      = TEME
TIME_SYSTEM    = UTC
MEAN_ELEMENT_THEORY = SGP/SGP4

EPOCH          = 2025-12-13T18:36:38.488608
MEAN_MOTION    = 15.50553327
ECCENTRICITY   = .00009555
INCLINATION    = 42.9995
RA_OF_ASC_NODE = 118.9895
ARG_OF_PERICENTER = 296.0653
MEAN_ANOMALY   = 64.0108

EPHEMERIS_TYPE = 0
CLASSIFICATION_TYPE = U
NORAD_CAT_ID   = 66511
ELEMENT_SET_NO = 999
REV_AT_EPOCH   = 572
BSTAR          = .15108389E-2
MEAN_MOTION_DOT = .89226E-3
MEAN_MOTION_DDOT = 0

CCSDS_OMM_VERS = 2.0
CREATION_DATE  = 
ORIGINATOR     = 

OBJECT_NAME    = STARLINK-35366
OBJECT_ID      = 2025-263AD
CENTER_NAME    = EARTH
REF_FRAME      = TEME
TIME_SYSTEM    = UTC
MEAN_ELEMENT_THEORY = SGP/SGP4

EPOCH          = 2025-12-14T19:19:46.386336
MEAN_MOTION    = 15.50614445
ECCENTRICITY   = .00014563
INCLINATION    = 42.9994
RA_OF_ASC_NODE = 112.9547
ARG_OF_PERICENTER = 284.5931
MEAN_ANOMALY   = 75.4767

EPHEMERIS_TYPE = 0
CLASSIFICATION_TYPE = U
NORAD_CAT_ID   = 66512
ELEMENT_SET_NO = 999
REV_AT_EPOCH   = 588
BSTAR          = .13136957E-2
MEAN_MOTION_DOT = .77592E-3
MEAN_MOTION_DDOT = 0

CCSDS_OMM_VERS = 2.0
CREATION_DATE  = 
ORIGINATOR     = 

OBJECT_NAME    = STARLINK-35692
OBJECT_ID      = 2025-263AE
CENTER_NAME    = EARTH
REF_FRAME      = TEME
TIME_SYSTEM    = UTC
MEAN_ELEMENT_THEORY = SGP/SGP4

EPOCH          = 2025-12-14T17:48:37.490976
MEAN_MOTION    = 15.49888651
ECCENTRICITY   = .0006975
INCLINATION    = 42.9999
RA_OF_ASC_NODE = 113.3407
ARG_OF_PERICENTER = 346.0385
MEAN_ANOMALY   = 14.0281

EPHEMERIS_TYPE = 0
CLASSIFICATION_TYPE = U
NORAD_CAT_ID   = 66513
ELEMENT_SET_NO = 999
REV_AT_EPOCH   = 587
BSTAR          = -.12484253E-1
MEAN_MOTION_DOT = -.658988E-2
MEAN_MOTION_DDOT = 0

CCSDS_OMM_VERS = 2.0
CREATION_DATE  = 
ORIGINATOR     = 

OBJECT_NAME    = SENTINEL-6B
OBJECT_ID      = 2025-264A
CENTER_NAME    = EARTH
REF_FRAME      = TEME
TIME_SYSTEM    = UTC
MEAN_ELEMENT_THEORY = SGP/SGP4

EPOCH          = 2025-12-12T06:01:21.430272
MEAN_MOTION    = 12.81479583
ECCENTRICITY   = .00078489
INCLINATION    = 66.0385
RA_OF_ASC_NODE = 163.4531
ARG_OF_PERICENTER = 270.1768
MEAN_ANOMALY   = 89.8348

EPHEMERIS_TYPE = 0
CLASSIFICATION_TYPE = U
NORAD_CAT_ID   = 66514
ELEMENT_SET_NO = 999
REV_AT_EPOCH   = 322
BSTAR          = .19742237E-3
MEAN_MOTION_DOT = -.15E-6
MEAN_MOTION_DDOT = 0

CCSDS_OMM_VERS = 2.0
CREATION_DATE  = 
ORIGINATOR     = 

OBJECT_NAME    = STARLINK-35924
OBJECT_ID      = 2025-265A
CENTER_NAME    = EARTH
REF_FRAME      = TEME
TIME_SYSTEM    = UTC
MEAN_ELEMENT_THEORY = SGP/SGP4

EPOCH          = 2025-12-14T20:00:06.000192
MEAN_MOTION    = 15.40672139
ECCENTRICITY   = .00017449
INCLINATION    = 43.0010
RA_OF_ASC_NODE = 42.0524
ARG_OF_PERICENTER = 262.4247
MEAN_ANOMALY   = 301.7984

EPHEMERIS_TYPE = 0
CLASSIFICATION_TYPE = U
NORAD_CAT_ID   = 66516
ELEMENT_SET_NO = 999
REV_AT_EPOCH   = 531
BSTAR          = -.19515466E-3
MEAN_MOTION_DOT = -.8439E-4
MEAN_MOTION_DDOT = 0

