STARLINK-35916          
1 66504U 25263V   25348.41736495  .00050322  00000+0  12044-2 0  9994
2 66504  42.9953 116.9698 0000983 265.9506  94.1238 15.40690154  5803
STARLINK-34766          
1 66505U 25263W   25346.74789216  .00114249  00000+0  19226-2 0  9996
2 66505  42.9974 125.0394 0001618 278.9286  81.1391 15.50613801  5560
STARLINK-34765          
1 66506U 25263X   25347.39169224  .00124234  00000+0  20838-2 0  9996
2 66506  43.0016 121.2760 0001980 266.2517  93.8117 15.50662448  5662
STARLINK-34767          
1 66507U 25263Y   25348.83340278  .00086702  00000+0  20624-2 0  9997
2 66507  43.0001 113.0742 0001561 288.3869 113.5716 15.40654131  5974
STARLINK-35608          
1 66508U 25263Z   25348.83340278  .00088507  00000+0  21049-2 0  9995
2 66508  43.0002 112.9533 0001534 272.8257 178.8951 15.40651256  5971
STARLINK-35598          
1 66509U 25263AA  25348.35495875  .00083130  00000+0  14214-2 0  9990
2 66509  42.9963 115.5964 0002459 212.5604 147.5105 15.50307356  5814
STARLINK-35600          
1 66510U 25263AB  25348.74240106 -.00240481  00000+0 -42621-2 0  9999
2 66510  42.9969 113.3430 0004401 251.3288 108.7095 15.50286834  5874
STARLINK-35444          
1 66511U 25263AC  25347.77544547  .00089226  00000+0  15108-2 0  9994
2 66511  42.9995 118.9895 0000955 296.0653  64.0108 15.50553327  5729
STARLINK-35366          
1 66512U 25263AD  25348.80539799  .00077592  00000+0  13137-2 0  9996
2 66512  42.9994 112.9547 0001456 284.5931  75.4767 15.50614445  5888
STARLINK-35692          
1 66513U 25263AE  25348.74210059 -.00658988  00000+0 -12484-1 0  9994
2 66513  42.9999 113.3407 0006975 346.0385  14.0281 15.49888651  5871
SENTINEL-6B             
1 66514U 25264A   25346.25094248 -.00000015  00000+0  19742-3 0  9997
2 66514  66.0385 163.4531 0007848 270.1768  89.8348 12.81479583  3228
STARLINK-35924          
1 66516U 25265A   25348.83340278 -.00008439  00000+0 -19515-3 0  9990
2 66516  43.0010  42.0524 0001744 262.4247 301.7984 15.40672139  5313
